NORAD_CAT_ID,OBJECT_NAME,OBJECT_TYPE,EPOCH,MEAN_MOTION,ECCENTRICITY,INCLINATION,RA_OF_ASC_NODE,ARG_OF_PERICENTER,MEAN_ANOMALY,BSTAR,MEAN_MOTION_DOT,MEAN_MOTION_DDOT,TLE_LINE0,TLE_LINE1,TLE_LINE2,SEMIMAJOR_AXIS,PERIOD,APOGEE,PERIGEE,DECAYED
51463.0,STARLINK-3419,PAYLOAD,2024-03-17 23:43:37,15.08837903,0.0001269,53.2163,278.9588,94.8986,265.2151,6.6067e-05,7.64e-06,0.0,0 STARLINK-3419,1 51463U 22010H   24077.98862837  .00000764  00000-0  66067-4 0  9991,2 51463  53.2163 278.9588 0001269  94.8986 265.2151 15.08837903118310,6917.887,95.438,540.63,538.874,0.0
51463.0,STARLINK-3419,PAYLOAD,2024-03-18 21:59:01,15.08837189,0.0001268,53.2162,274.7942,90.0224,270.0913,7.1203e-05,8.45e-06,0.0,0 STARLINK-3419,1 51463U 22010H   24078.91599086  .00000845  00000-0  71203-4 0  9996,2 51463  53.2162 274.7942 0001268  90.0224 270.0913 15.08837189117707,6917.889,95.438,540.631,538.877,0.0
51463.0,STARLINK-3419,PAYLOAD,2024-03-18 23:34:24,15.08835181,0.0001314,53.2166,274.4991,98.2006,261.9136,5.6083e-05,6.05e-06,0.0,0 STARLINK-3419,1 51463U 22010H   24078.98223262  .00000605  00000-0  56083-4 0  9996,2 51463  53.2166 274.4991 0001314  98.2006 261.9136 15.08835181117719,6917.895,95.438,540.669,538.851,0.0
51463.0,STARLINK-3419,PAYLOAD,2024-03-19 21:49:47,15.08848956,0.0001284,53.2167,270.3361,93.8337,266.2802,0.00011755,1.584e-05,0.0,0 STARLINK-3419,1 51463U 22010H   24079.90958303  .00001584  00000-0  11755-3 0  9993,2 51463  53.2167 270.3361 0001284  93.8337 266.2802 15.08848956118601,6917.853,95.437,540.606,538.83,0.0
51463.0,STARLINK-3419,PAYLOAD,2024-03-20 12:08:16,15.08842885,0.0001327,53.2149,267.6618,90.5045,269.6099,0.00010131,1.325e-05,0.0,0 STARLINK-3419,1 51463U 22010H   24080.50574705  .00001325  00000-0  10131-3 0  9991,2 51463  53.2149 267.6618 0001327  90.5045 269.6099 15.08842885117949,6917.872,95.437,540.655,538.819,0.0
51463.0,STARLINK-3419,PAYLOAD,2024-03-20 20:05:12,15.08839362,0.0001089,53.2172,266.1728,117.6172,242.4931,3.4807e-05,2.66e-06,0.0,0 STARLINK-3419,1 51463U 22010H   24080.83694990  .00000266  00000-0  34807-4 0  9996,2 51463  53.2172 266.1728 0001089 117.6172 242.4931 15.08839362118747,6917.882,95.438,540.501,538.994,0.0
51463.0,STARLINK-3419,PAYLOAD,2024-03-21 11:59:04,15.0883684,0.0001153,53.2168,263.1985,114.36,245.7512,-9.1255e-06,-4.33e-06,0.0,0 STARLINK-3419,1 51463U 22010H   24081.49935400 -.00000433  00000-0 -91255-5 0  9992,2 51463  53.2168 263.1985 0001153 114.3600 245.7512 15.08836840118093,6917.89,95.438,540.553,538.957,0.0
51463.0,STARLINK-3419,PAYLOAD,2024-03-21 18:20:36,15.08845207,0.0001133,53.2167,262.0122,90.6167,269.4955,-5.5658e-06,-3.76e-06,0.0,0 STARLINK-3419,1 51463U 22010H   24081.76430985 -.00000376  00000-0 -55658-5 0  9993,2 51463  53.2167 262.0122 0001133  90.6167 269.4955 15.08845207118131,6917.864,95.437,540.513,538.946,0.0
51463.0,STARLINK-3419,PAYLOAD,2024-03-22 18:11:22,15.08877176,0.0001085,53.2164,257.5523,70.8786,289.2324,-0.00046481,-7.685e-05,0.0,0 STARLINK-3419,1 51463U 22010H   24082.75790061 -.00007685  00000-0 -46481-3 0  9999,2 51463  53.2164 257.5523 0001085  70.8786 289.2324 15.08877176119035,6917.767,95.435,540.382,538.881,0.0
51463.0,STARLINK-3419,PAYLOAD,2024-03-22 21:22:09,15.08839929,0.0001263,53.216,256.9566,69.972,290.1408,0.00010977,1.46e-05,0.0,0 STARLINK-3419,1 51463U 22010H   24082.89039021  .00001460  00000-0  10977-3 0  9990,2 51463  53.2160 256.9566 0001263  69.9720 290.1408 15.08839929118303,6917.881,95.438,540.619,538.872,0.0
51463.0,STARLINK-3419,PAYLOAD,2024-03-23 11:40:38,15.08822924,0.0001255,53.2159,254.2788,86.2506,273.8629,0.00024314,3.582e-05,0.0,0 STARLINK-3419,1 51463U 22010H   24083.48655935  .00003582  00000-0  24314-3 0  9991,2 51463  53.2159 254.2788 0001255  86.2506 273.8629 15.08822924119146,6917.933,95.439,540.666,538.929,0.0
51463.0,STARLINK-3419,PAYLOAD,2024-03-23 18:02:11,15.08823732,0.0001201,53.2168,253.0884,92.7552,267.3577,0.00025264,3.733e-05,0.0,0 STARLINK-3419,1 51463U 22010H   24083.75151966  .00003733  00000-0  25264-3 0  9999,2 51463  53.2168 253.0884 0001201  92.7552 267.3577 15.08823732118433,6917.93,95.439,540.626,538.964,0.0
51463.0,STARLINK-3419,PAYLOAD,2024-03-24 11:31:25,15.0884002,0.0001172,53.2163,249.8166,86.9855,273.1271,7.8028e-05,9.54e-06,0.0,0 STARLINK-3419,1 51463U 22010H   24084.48015212  .00000954  00000-0  78028-4 0  9992,2 51463  53.2163 249.8166 0001172  86.9855 273.1271 15.08840020119292,6917.88,95.438,540.556,538.935,0.0
51463.0,STARLINK-3419,PAYLOAD,2024-03-24 14:42:11,15.08840453,0.0001173,53.2162,249.2221,87.3163,272.7963,8.2328e-05,1.023e-05,0.0,0 STARLINK-3419,1 51463U 22010H   24084.61263305  .00001023  00000-0  82328-4 0  9991,2 51463  53.2162 249.2221 0001173  87.3163 272.7963 15.08840453118567,6917.879,95.438,540.555,538.933,0.0
51463.0,STARLINK-3419,PAYLOAD,2024-03-24 17:52:57,15.08845075,0.0001259,53.2177,248.6344,100.7601,259.3532,0.00010195,1.335e-05,0.0,0 STARLINK-3419,1 51463U 22010H   24084.74511043  .00001335  00000-0  10195-3 0  9998,2 51463  53.2177 248.6344 0001259 100.7601 259.3532 15.08845075118584,6917.865,95.437,540.601,538.859,0.0
51463.0,STARLINK-3419,PAYLOAD,2024-03-25 03:25:14,15.08862492,0.000113,53.217,246.8449,72.4675,287.6441,0.00020334,2.952e-05,0.0,0 STARLINK-3419,1 51463U 22010H   24085.14253213  .00002952  00000-0  20334-3 0  9997,2 51463  53.2170 246.8449 0001130  72.4675 287.6441 15.08862492119392,6917.812,95.436,540.458,538.895,0.0
51463.0,STARLINK-3419,PAYLOAD,2024-03-25 11:22:11,15.08852006,0.0003298,53.2171,245.3589,77.7269,282.4093,0.00020007,2.898e-05,0.0,0 STARLINK-3419,1 51463U 22010H   24085.47374777  .00002898  00000-0  20007-3 0  9998,2 51463  53.2171 245.3589 0003298  77.7269 282.4093 15.08852006119448,6917.844,95.437,541.99,537.427,0.0
51463.0,STARLINK-3419,PAYLOAD,2024-03-25 17:43:45,15.08831669,0.0001182,53.2167,244.1694,78.8497,281.2628,3.1721e-05,2.17e-06,0.0,0 STARLINK-3419,1 51463U 22010H   24085.73872297  .00000217  00000-0  31721-4 0  9996,2 51463  53.2167 244.1694 0001182  78.8497 281.2628 15.08831669119489,6917.906,95.438,540.589,538.953,0.0
51463.0,STARLINK-3419,PAYLOAD,2024-03-26 03:16:04,15.0883827,0.0001228,53.2171,242.3855,86.1101,274.0032,5.9558e-05,6.6e-06,0.0,0 STARLINK-3419,1 51463U 22010H   24086.13615907  .00000660  00000-0  59558-4 0  9994,2 51463  53.2171 242.3855 0001228  86.1101 274.0032 15.08838270119549,6917.886,95.438,540.6,538.901,0.0
51463.0,STARLINK-3419,PAYLOAD,2024-03-26 09:37:37,15.08834766,0.0001884,53.2164,241.1976,83.3733,276.7473,9.9908e-06,-1.29e-06,0.0,0 STARLINK-3419,1 51463U 22010H   24086.40112696 -.00000129  00000-0  99908-5 0  9996,2 51463  53.2164 241.1976 0001884  83.3733 276.7473 15.08834766119588,6917.896,95.438,541.065,538.458,0.0
51463.0,STARLINK-3419,PAYLOAD,2024-03-26 14:23:47,15.088258,0.0001425,53.2166,240.3059,88.2687,271.8468,-6.3809e-05,-1.303e-05,0.0,0 STARLINK-3419,1 51463U 22010H   24086.59985465 -.00001303  00000-0 -63809-4 0  9994,2 51463  53.2166 240.3059 0001425  88.2687 271.8468 15.08825800118865,6917.924,95.438,540.775,538.803,0.0
51463.0,STARLINK-3419,PAYLOAD,2024-03-26 17:34:33,15.08825622,0.0001512,53.2177,239.7107,89.9053,270.2112,-5.8875e-06,-3.82e-06,0.0,0 STARLINK-3419,1 51463U 22010H   24086.73233443 -.00000382  00000-0 -58875-5 0  9996,2 51463  53.2177 239.7107 0001512  89.9053 270.2112 15.08825622119632,6917.924,95.438,540.835,538.743,0.0
51463.0,STARLINK-3419,PAYLOAD,2024-03-27 03:06:51,15.08840692,0.0001113,53.2163,237.9226,89.5023,270.6097,-9.6633e-05,-1.825e-05,0.0,0 STARLINK-3419,1 51463U 22010H   24087.12976560 -.00001825  00000-0 -96633-4 0  9990,2 51463  53.2163 237.9226 0001113  89.5023 270.6097 15.08840692119695,6917.878,95.438,540.513,538.973,0.0
51463.0,STARLINK-3419,PAYLOAD,2024-03-27 14:14:33,15.08831417,2.25e-05,53.2167,235.8406,155.5277,204.5726,0.00024657,3.638e-05,0.0,0 STARLINK-3419,1 51463U 22010H   24087.59344077  .00003638  00000-0  24657-3 0  9991,2 51463  53.2167 235.8406 0000225 155.5277 204.5726 15.08831417119010,6917.907,95.438,539.927,539.616,0.0
51463.0,STARLINK-3419,PAYLOAD,2024-03-27 19:00:41,15.08858399,0.0001166,53.2171,234.9512,102.1046,258.0077,0.00037343,5.663e-05,0.0,0 STARLINK-3419,1 51463U 22010H   24087.79214387  .00005663  00000-0  37343-3 0  9999,2 51463  53.2171 234.9512 0001166 102.1046 258.0077 15.08858399119796,6917.824,95.436,540.496,538.883,0.0
51463.0,STARLINK-3419,PAYLOAD,2024-03-28 09:19:12,15.08813811,0.0001571,53.2178,232.2768,88.5496,271.5676,2.4703e-05,1.05e-06,0.0,0 STARLINK-3419,1 51463U 22010H   24088.38834040  .00000105  00000-0  24703-4 0  9992,2 51463  53.2178 232.2768 0001571  88.5496 271.5676 15.08813811119888,6917.96,95.439,540.912,538.739,0.0
51463.0,STARLINK-3419,PAYLOAD,2024-03-29 09:09:58,15.0884144,0.0001837,53.216,227.8165,88.5372,271.583,-7.3227e-05,-1.453e-05,0.0,0 STARLINK-3419,1 51463U 22010H   24089.38192807 -.00001453  00000-0 -73227-4 0  9995,2 51463  53.2160 227.8165 0001837  88.5372 271.5830 15.08841440119283,6917.876,95.437,541.012,538.47,0.0
51463.0,STARLINK-3419,PAYLOAD,2024-03-29 15:31:30,15.08845332,2.56e-05,53.2201,226.6249,97.4193,262.6828,-6.0217e-05,-1.246e-05,0.0,0 STARLINK-3419,1 51463U 22010H   24089.64688453 -.00001246  00000-0 -60217-4 0  9996,2 51463  53.2201 226.6249 0000256  97.4193 262.6828 15.08845332119320,6917.864,95.437,539.906,539.552,0.0
51463.0,STARLINK-3419,PAYLOAD,2024-03-30 02:39:11,15.08856215,0.0001728,53.2173,224.5448,99.4961,260.6226,-0.00011046,-2.046e-05,0.0,0 STARLINK-3419,1 51463U 22010H   24090.11055489 -.00002046  00000-0 -11046-3 0  9991,2 51463  53.2173 224.5448 0001728  99.4961 260.6226 15.08856215120140,6917.831,95.437,540.891,538.5,0.0
51463.0,STARLINK-3419,PAYLOAD,2024-03-30 12:11:32,15.08829941,0.0002174,53.2131,222.7585,98.6725,261.4514,0.00015136,2.121e-05,0.0,0 STARLINK-3419,1 51463U 22010H   24090.50800948  .00002121  00000-0  15136-3 0  9998,2 51463  53.2131 222.7585 0002174  98.6725 261.4514 15.08829941120203,6917.911,95.438,541.28,538.272,0.0
